[{"OBJECT_NAME":"STARLINK-35176","OBJECT_ID":"2025-211L","EPOCH":"2026-03-09T16:44:10.606272","MEAN_MOTION":15.05651401,"ECCENTRICITY":0.00011357,"INCLINATION":97.602,"RA_OF_ASC_NODE":114.0831,"ARG_OF_PERICENTER":119.4323,"MEAN_ANOMALY":240.7017,"EPHEMERIS_TYPE":0,"CLASSIFICATION_TYPE":"U","NORAD_CAT_ID":65662,"ELEMENT_SET_NO":999,"REV_AT_EPOCH":2704,"BSTAR":0.00026575317,"MEAN_MOTION_DOT":3.776e-5,"MEAN_MOTION_DDOT":0},{"OBJECT_NAME":"PSLV R\/B","OBJECT_ID":"2018-071C","EPOCH":"2026-03-09T22:40:07.416192","MEAN_MOTION":15.00058604,"ECCENTRICITY":0.00237177,"INCLINATION":97.444,"RA_OF_ASC_NODE":249.6196,"ARG_OF_PERICENTER":104.8167,"MEAN_ANOMALY":255.5687,"EPHEMERIS_TYPE":0,"CLASSIFICATION_TYPE":"U","NORAD_CAT_ID":43620,"ELEMENT_SET_NO":999,"REV_AT_EPOCH":40754,"BSTAR":0.00020356401,"MEAN_MOTION_DOT":2.493e-5,"MEAN_MOTION_DDOT":0}]
